{
  "type": "FeatureCollection",
  "features": [
    {
      "type": "Feature",
      "properties": {
        "norad_id": 66914,
        "name": "2025-284B",
        "group": "last-30-days",
        "lat": -45.03070507392331,
        "lon": -43.277425545356714,
        "alt_km": 510.13161970038436,
        "timestamp": "2025-12-14T22:38:39.519476+00:00",
        "meta_object_name": "2025-284B",
        "meta_object_id": "2025-284B",
        "meta_epoch": "2025-12-14T09:00:18.538848",
        "meta_mean_motion": 15.18957053,
        "meta_eccentricity": 0.00082919,
        "meta_inclination": 80.4048,
        "meta_ra_of_asc_node": 127.6928,
        "meta_arg_of_pericenter": 241.7793,
        "meta_mean_anomaly": 118.2597,
        "meta_ephemeris_type": 0,
        "meta_classification_type": "U",
        "meta_norad_cat_id": 66914,
        "meta_element_set_no": 999,
        "meta_rev_at_epoch": 137,
        "meta_bstar": 0.00049158384,
        "meta_mean_motion_dot": 0.00010305,
        "meta_mean_motion_ddot": 0,
        "tle_line1": "1 66914U 25284B   25348.37521457  .00010305  00000+0  49158-3 0  9991",
        "tle_line2": "2 66914  80.4048 127.6928 0008291 241.7793 118.2597 15.18957053  1378"
      },
      "geometry": {
        "type": "Point",
        "coordinates": [
          -43.277425545356714,
          -45.03070507392331
        ]
      }
    },
    {
      "type": "Feature",
      "properties": {
        "norad_id": 66915,
        "name": "HULIANWANG DIGUI-105",
        "group": "last-30-days",
        "lat": 6.488670701163231,
        "lon": -77.18162788897372,
        "alt_km": 883.360918837644,
        "timestamp": "2025-12-14T22:38:39.519487+00:00",
        "meta_object_name": "HULIANWANG DIGUI-105",
        "meta_object_id": "2025-285A",
        "meta_epoch": "2025-12-14T08:09:41.298048",
        "meta_mean_motion": 14.03715738,
        "meta_eccentricity": 0.00079476,
        "meta_inclination": 50.0042,
        "meta_ra_of_asc_node": 110.7555,
        "meta_arg_of_pericenter": 288.0635,
        "meta_mean_anomaly": 71.9403,
        "meta_ephemeris_type": 0,
        "meta_classification_type": "U",
        "meta_norad_cat_id": 66915,
        "meta_element_set_no": 999,
        "meta_rev_at_epoch": 113,
        "meta_bstar": 0.00013268831,
        "meta_mean_motion_dot": 5.9e-07,
        "meta_mean_motion_ddot": 0,
        "tle_line1": "1 66915U 25285A   25348.34006132  .00000059  00000+0  13269-3 0  9997",
        "tle_line2": "2 66915  50.0042 110.7555 0007947 288.0635  71.9403 14.03715738  1131"
      },
      "geometry": {
        "type": "Point",
        "coordinates": [
          -77.18162788897372,
          6.488670701163231
        ]
      }
    },
    {
      "type": "Feature",
      "properties": {
        "norad_id": 66916,
        "name": "HULIANWANG DIGUI-106",
        "group": "last-30-days",
        "lat": -5.671822810330024,
        "lon": -66.94860220671164,
        "alt_km": 878.8942491725484,
        "timestamp": "2025-12-14T22:38:39.519497+00:00",
        "meta_object_name": "HULIANWANG DIGUI-106",
        "meta_object_id": "2025-285B",
        "meta_epoch": "2025-12-14T08:05:51.629568",
        "meta_mean_motion": 14.04835051,
        "meta_eccentricity": 0.00069679,
        "meta_inclination": 50.0052,
        "meta_ra_of_asc_node": 110.7424,
        "meta_arg_of_pericenter": 281.6694,
        "meta_mean_anomaly": 78.3429,
        "meta_ephemeris_type": 0,
        "meta_classification_type": "U",
        "meta_norad_cat_id": 66916,
        "meta_element_set_no": 999,
        "meta_rev_at_epoch": 113,
        "meta_bstar": 1.7432928e-05,
        "meta_mean_motion_dot": -1.24e-06,
        "meta_mean_motion_ddot": 0,
        "tle_line1": "1 66916U 25285B   25348.33740312 -.00000124  00000+0  17433-4 0  9994",
        "tle_line2": "2 66916  50.0052 110.7424 0006967 281.6694  78.3429 14.04835051  1134"
      },
      "geometry": {
        "type": "Point",
        "coordinates": [
          -66.94860220671164,
          -5.671822810330024
        ]
      }
    },
    {
      "type": "Feature",
      "properties": {
        "norad_id": 66917,
        "name": "HULIANWANG DIGUI-107",
        "group": "last-30-days",
        "lat": -9.714988568326463,
        "lon": -63.47526138115661,
        "alt_km": 878.6433213519567,
        "timestamp": "2025-12-14T22:38:39.519507+00:00",
        "meta_object_name": "HULIANWANG DIGUI-107",
        "meta_object_id": "2025-285C",
        "meta_epoch": "2025-12-14T08:04:37.661664",
        "meta_mean_motion": 14.0529373,
        "meta_eccentricity": 0.0008308,
        "meta_inclination": 50.0065,
        "meta_ra_of_asc_node": 110.7408,
        "meta_arg_of_pericenter": 294.2783,
        "meta_mean_anomaly": 65.7254,
        "meta_ephemeris_type": 0,
        "meta_classification_type": "U",
        "meta_norad_cat_id": 66917,
        "meta_element_set_no": 999,
        "meta_rev_at_epoch": 113,
        "meta_bstar": 0.00014115221,
        "meta_mean_motion_dot": 7.8e-07,
        "meta_mean_motion_ddot": 0,
        "tle_line1": "1 66917U 25285C   25348.33654701  .00000078  00000+0  14115-3 0  9991",
        "tle_line2": "2 66917  50.0065 110.7408 0008308 294.2783  65.7254 14.05293730  1130"
      },
      "geometry": {
        "type": "Point",
        "coordinates": [
          -63.47526138115661,
          -9.714988568326463
        ]
      }
    },
    {
      "type": "Feature",
      "properties": {
        "norad_id": 66918,
        "name": "HULIANWANG DIGUI-108",
        "group": "last-30-days",
        "lat": -12.614911772843229,
        "lon": -60.91897324245719,
        "alt_km": 877.01305344093,
        "timestamp": "2025-12-14T22:38:39.519517+00:00",
        "meta_object_name": "HULIANWANG DIGUI-108",
        "meta_object_id": "2025-285D",
        "meta_epoch": "2025-12-14T08:03:37.369152",
        "meta_mean_motion": 14.05417522,
        "meta_eccentricity": 0.0006314,
        "meta_inclination": 50.0089,
        "meta_ra_of_asc_node": 110.7358,
        "meta_arg_of_pericenter": 283.2589,
        "meta_mean_anomaly": 76.7612,
        "meta_ephemeris_type": 0,
        "meta_classification_type": "U",
        "meta_norad_cat_id": 66918,
        "meta_element_set_no": 999,
        "meta_rev_at_epoch": 113,
        "meta_bstar": 0.00014847105,
        "meta_mean_motion_dot": 9e-07,
        "meta_mean_motion_ddot": 0,
        "tle_line1": "1 66918U 25285D   25348.33584918  .00000090  00000+0  14847-3 0  9990",
        "tle_line2": "2 66918  50.0089 110.7358 0006314 283.2589  76.7612 14.05417522  1135"
      },
      "geometry": {
        "type": "Point",
        "coordinates": [
          -60.91897324245719,
          -12.614911772843229
        ]
      }
    },
    {
      "type": "Feature",
      "properties": {
        "norad_id": 66919,
        "name": "HULIANWANG DIGUI-109",
        "group": "last-30-days",
        "lat": -13.470377325215503,
        "lon": -60.148684311488026,
        "alt_km": 877.3027877098411,
        "timestamp": "2025-12-14T22:38:39.519526+00:00",
        "meta_object_name": "HULIANWANG DIGUI-109",
        "meta_object_id": "2025-285E",
        "meta_epoch": "2025-12-14T08:03:28.700640",
        "meta_mean_motion": 14.05717696,
        "meta_eccentricity": 0.00078921,
        "meta_inclination": 50.0064,
        "meta_ra_of_asc_node": 110.7355,
        "meta_arg_of_pericenter": 297.0727,
        "meta_mean_anomaly": 62.9372,
        "meta_ephemeris_type": 0,
        "meta_classification_type": "U",
        "meta_norad_cat_id": 66919,
        "meta_element_set_no": 999,
        "meta_rev_at_epoch": 113,
        "meta_bstar": 0.00015709328,
        "meta_mean_motion_dot": 1.06e-06,
        "meta_mean_motion_ddot": 0,
        "tle_line1": "1 66919U 25285E   25348.33574885  .00000106  00000+0  15709-3 0  9999",
        "tle_line2": "2 66919  50.0064 110.7355 0007892 297.0727  62.9372 14.05717696  1130"
      },
      "geometry": {
        "type": "Point",
        "coordinates": [
          -60.148684311488026,
          -13.470377325215503
        ]
      }
    },
    {
      "type": "Feature",
      "properties": {
        "norad_id": 66920,
        "name": "HULIANWANG DIGUI-110",
        "group": "last-30-days",
        "lat": -16.540389146107056,
        "lon": -57.317320359345466,
        "alt_km": 876.3197450972211,
        "timestamp": "2025-12-14T22:38:39.519536+00:00",
        "meta_object_name": "HULIANWANG DIGUI-110",
        "meta_object_id": "2025-285F",
        "meta_epoch": "2025-12-14T08:02:24.203040",
        "meta_mean_motion": 14.05851874,
        "meta_eccentricity": 0.00058537,
        "meta_inclination": 50.0097,
        "meta_ra_of_asc_node": 110.7358,
        "meta_arg_of_pericenter": 293.8936,
        "meta_mean_anomaly": 66.1355,
        "meta_ephemeris_type": 0,
        "meta_classification_type": "U",
        "meta_norad_cat_id": 66920,
        "meta_element_set_no": 999,
        "meta_rev_at_epoch": 113,
        "meta_bstar": 0.00014216705,
        "meta_mean_motion_dot": 8.2e-07,
        "meta_mean_motion_ddot": 0,
        "tle_line1": "1 66920U 25285F   25348.33500235  .00000082  00000+0  14217-3 0  9995",
        "tle_line2": "2 66920  50.0097 110.7358 0005853 293.8936  66.1355 14.05851874  1136"
      },
      "geometry": {
        "type": "Point",
        "coordinates": [
          -57.317320359345466,
          -16.540389146107056
        ]
      }
    }
  ]
}